PANDORA                 
1 67395U 26004AJ  26063.46705591  .00001359  00000+0  15445-3 0  9995
2 67395  97.8031  63.7759 0006697 108.4998 251.6947 14.87858052  7700
HAWK-13B                
1 67396U 26004AK  26063.62910167  .00007720  00000+0  38134-3 0  9999
2 67396  97.4516  64.1824 0006534 356.5123   3.6064 15.18122148  7899
CARBSAR                 
1 67397U 26004AL  26063.62970560  .00010226  00000+0  50198-3 0  9992
2 67397  97.4537  64.1960 0005629   5.1550 354.9741 15.18262459  7893
TWILIGHT-1 OBJECT AM    
1 67398U 26004AM  26063.49410805  .00008356  00000+0  41139-3 0  9995
2 67398  97.4576  64.0960 0006947   7.5605 352.5733 15.18210215  7873
TWILIGHT-1 OBJECT AN    
1 67399U 26004AN  26063.48799570  .00007245  00000+0  35433-3 0  9990
2 67399  97.4564  64.0963 0007485   6.4085 353.7244 15.18489046  7872
CONNECTA IOT-13         
1 67400U 26004AP  26062.50085787  .00004763  00000+0  23874-3 0  9991
2 67400  97.4617  63.1235 0009200   6.4288 353.7062 15.17792796  7728
CONNECTA IOT-14         
1 67401U 26004AQ  26063.21316805  .00006116  00000+0  30143-3 0  9990
2 67401  97.4509  63.8089 0010110 355.0223   5.0909 15.18262951  7832
CONNECTA IOT-15         
1 67402U 26004AR  26062.54532364  .00004950  00000+0  25589-3 0  9998
2 67402  97.4572  63.0621 0002703   6.8731 353.2539 15.16719496  7714
SHIJIAN-29B (SJ-29B)    
1 67403U 25315C   26063.63876492 -.00000077  00000+0  00000+0 0  9991
2 67403   3.1324  97.7935 0003888 317.1875  50.5132  1.00272722   643
STARLINK-36484          
1 67404U 26005A   26063.62628609  .00036365  00000+0  90372-3 0  9996
2 67404  42.9993 266.4533 0006630 301.1919  58.8287 15.39655668  7927
STARLINK-36452          
1 67405U 26005B   26063.50001157  .00074861  00000+0  27099-2 0  9995
2 67405  42.9993 266.9344 0001622 264.5121 214.3401 15.27489286  5918
STARLINK-36409          
1 67406U 26005C   26063.50001157  .00060546  00000+0  21951-2 0  9992
2 67406  42.9987 267.4298 0002359 242.6043  31.0874 15.27528558  5895
STARLINK-36510          
1 67407U 26005D   26063.57466334  .00030672  00000+0  11187-2 0  9999
2 67407  42.9985 266.9194 0001516 268.6649  91.4029 15.27601874  7917
STARLINK-36509          
1 67408U 26005E   26063.50001157  .00091975  00000+0  32301-2 0  9995
2 67408  42.9999 267.1627 0001966 256.0933 128.2989 15.28383982  5913
STARLINK-36507          
1 67409U 26005F   26063.58879840  .00041874  00000+0  15216-2 0  9995
2 67409  42.9989 267.0238 0001499 254.4189 105.6497 15.27601560  7915
STARLINK-36508          
1 67410U 26005G   26063.50001157  .00054586  00000+0  19813-2 0  9998
2 67410  42.9981 267.6679 0001380 274.9794 259.6664 15.27534146  5911
STARLINK-36503          
1 67411U 26005H   26063.50001157  .00067684  00000+0  24508-2 0  9999
2 67411  42.9995 267.1849 0001617 267.1645 105.5782 15.27524245  5912
STARLINK-36446          
1 67412U 26005J   26063.50001157  .00066719  00000+0  23552-2 0  9996
2 67412  42.9992 267.2951 0001493 259.6942  69.8271 15.28363521  5759
STARLINK-36442          
1 67413U 26005K   26063.50001157  .00082276  00000+0  28940-2 0  9999
2 67413  43.0000 267.0431 0001600 262.4708 170.6357 15.28387439  5924
STARLINK-36506          
1 67414U 26005L   26063.62205926  .00029897  00000+0  10900-2 0  9990
2 67414  42.9993 266.4087 0001817 265.8665  94.1979 15.27624775  7921
STARLINK-36468          
1 67415U 26005M   26063.50001157  .00056182  00000+0  20388-2 0  9996
2 67415  42.9985 267.6269 0001349 266.2492 282.5164 15.27528105  5928
STARLINK-36487          
1 67416U 26005N   26063.59533813  .00034855  00000+0  12370-2 0  9990
2 67416  42.9980 267.0772 0001063 211.4744 148.6045 15.28446574  7913
STARLINK-36374          
1 67417U 26005P   26063.57852055  .00028963  00000+0  10571-2 0  9995
2 67417  42.9943 266.9472 0000676 307.8869  52.1921 15.27604077  7910
STARLINK-36455          
1 67418U 26005Q   26063.57495203  .00031662  00000+0  11256-2 0  9995
2 67418  42.9961 266.9194 0000851 272.0655  88.0099 15.28429118  7919
STARLINK-36424          
1 67419U 26005R   26063.50001157  .00087457  00000+0  30719-2 0  9998
2 67419  42.9999 267.1426 0002209 270.2331 121.5247 15.28403547  5927
STARLINK-35564          
1 67420U 26005S   26063.57594461  .00045777  00000+0  16615-2 0  9990
2 67420  42.9971 266.9212 0002142 260.1644  99.8966 15.27604033  7918
STARLINK-36431          
1 67421U 26005T   26063.00001157  .00077088  00000+0  27150-2 0  9990
2 67421  42.9981 270.4598 0001399 274.9573  40.3422 15.28375335  5898
STARLINK-36418          
1 67422U 26005U   26063.50001157 -.00319231  00000+0 -11747-1 0  9991
2 67422  43.0092 266.9864 0001800 253.8068 202.3903 15.28539385  5927
STARLINK-36465          
1 67423U 26005V   26063.00001157  .00074459  00000+0  26911-2 0  9995
2 67423  42.9990 270.3396 0002514 277.9944  87.3319 15.27542374  5894
STARLINK-36362          
1 67424U 26005W   26063.50001157  .00063995  00000+0  22598-2 0  9991
2 67424  42.9985 267.4121 0001824 279.3568   0.5480 15.28369955  5870
STARLINK-36447          
1 67425U 26005X   26063.50001157  .00064952  00000+0  22935-2 0  9991
2 67425  42.9997 267.2384 0001750 242.9065 108.8122 15.28364795  5927
STARLINK-36146          
1 67426U 26005Y   26063.60036220  .00018643  00000+0  68492-3 0  9997
2 67426  42.9945 267.1094 0002332 145.4415 214.6588 15.27596509  7902
STARLINK-36459          
1 67427U 26005Z   26063.50001157  .00055598  00000+0  20176-2 0  9994
2 67427  42.9986 267.5734 0001408 263.4392 306.5839 15.27532948  5872
STARLINK-36464          
1 67428U 26005AA  26063.56707534  .00043083  00000+0  15253-2 0  9999
2 67428  42.9985 266.8568 0001376 253.1823 106.8878 15.28442542  7909
STARLINK-36513          
1 67429U 26005AB  26063.50001157  .00083258  00000+0  30042-2 0  9993
2 67429  42.9998 267.1472 0001550 264.6477 122.2374 15.27545970  5873
STARLINK-36515          
1 67430U 26005AC  26063.58237252  .00028920  00000+0  10554-2 0  9991
2 67430  42.9942 266.9719 0000752 269.5684  90.5081 15.27607228  7905
STARLINK-36443          
1 67431U 26005AD  26063.55880459  .00019104  00000+0  68382-3 0  9999
2 67431  42.9991 266.7922 0002742 281.6826  78.3718 15.28437603  7919
STARLINK-36460          
1 67432U 26005AE  26063.60293162  .00029780  00000+0  10866-2 0  9999
2 67432  43.0026 267.1215 0002104 256.8124 103.2494 15.27601501  7905
YAOGAN-50 01            
1 67433U 26006A   26063.57230957  .00000344  00000+0  14109-3 0  9990
2 67433 142.0349  70.2153 0001070 262.6335  97.4262 13.83249473  6944
HULIANWANG DIGUI-137    
1 67435U 26007A   26062.29512124 -.00000026  00000+0  17597-3 0  9992
2 67435  50.0080 106.1504 0001750 116.8855 243.2203 13.44406332  6691
HULIANWANG DIGUI-138    
1 67436U 26007B   26062.30877376 -.00000029  00000+0  17308-3 0  9991
2 67436  50.0071 106.2207 0000594 208.7566 151.3280 13.43759549  6692
HULIANWANG DIGUI-139    
1 67437U 26007C   26063.12017166 -.00000006  00000+0  21428-3 0  9999
2 67437  50.0246 103.1864 0002852 300.7280  59.3318 13.43164524  6802
HULIANWANG DIGUI-140    
1 67438U 26007D   26062.31585351 -.00000016  00000+0  19621-3 0  9999
2 67438  50.0067 106.2628 0000614 210.9692 149.1151 13.43527491  6695
HULIANWANG DIGUI-141    
1 67439U 26007E   26062.28868161 -.00000025  00000+0  17763-3 0  9994
2 67439  50.0174 106.0944 0000968 218.2312 141.8498 13.44477946  6699
HULIANWANG DIGUI-142    
1 67440U 26007F   26063.02559200 -.00000105  00000+0  41703-4 0  9991
2 67440  50.0146 103.3909 0000862 109.6985 250.3986 13.44008406  6793
HULIANWANG DIGUI-143    
1 67441U 26007G   26062.27569739 -.00000027  00000+0  17428-3 0  9995
2 67441  50.0133 106.0859 0001458 312.0229  48.0526 13.44825453  6697
HULIANWANG DIGUI-144    
1 67442U 26007H   26062.86352232 -.00000031  00000+0  16706-3 0  9992
2 67442  50.0065 103.8519 0001318 106.0937 254.0087 13.44795868  6778
HULIANWANG DIGUI-145    
1 67443U 26007J   26062.33708830 -.00000023  00000+0  17986-3 0  9996
2 67443  50.0026 105.7349 0002394 195.2425 164.8382 13.44957016  6709
STARLINK-36542          
1 67445U 26008A   26063.48902981  .00044610  00000+0  16187-2 0  9999
2 67445  42.9966 234.8758 0001338 275.6740  84.3959 15.27622399  8773
STARLINK-36539          
1 67446U 26008B   26063.50316555  .00044609  00000+0  16189-2 0  9999
2 67446  42.9979 234.9792 0000860 239.0736 121.0031 15.27618050  8774
STARLINK-36440          
1 67447U 26008C   26063.50687033  .00039254  00000+0  14268-2 0  9998
2 67447  42.9974 234.1323 0001804 153.2294 206.8651 15.27617051  8788
STARLINK-36423          
1 67448U 26008D   26063.50001157  .00036662  00000+0  13362-2 0  9990
2 67448  43.0000 234.4784 0001985 266.2733 295.6639 15.27554041  5977
STARLINK-36519          
1 67449U 26008E   26063.47875069  .00036828  00000+0  13399-2 0  9992
2 67449  42.9958 234.7886 0000796 184.0354 176.0492 15.27610841  8770
STARLINK-36525          
1 67450U 26008F   26063.47489916  .00046423  00000+0  16838-2 0  9999
2 67450  42.9986 234.7699 0001927 279.9475  80.1159 15.27620567  8771
STARLINK-36511          
1 67451U 26008G   26063.49288436  .00043147  00000+0  15671-2 0  9990
2 67451  42.9976 234.9045 0001167 255.6131 104.4591 15.27606060  8776
STARLINK-36524          
1 67452U 26008H   26063.50059852  .00040480  00000+0  14709-2 0  9999
2 67452  42.9991 234.9591 0003088 294.5413  65.5116 15.27612562  8773
STARLINK-36518          
1 67453U 26008J   26063.48003254  .00031742  00000+0  11572-2 0  9998
2 67453  42.9997 234.7821 0002220 266.9713  93.0884 15.27603348  8777
STARLINK-36517          
1 67454U 26008K   26063.48646459  .00023591  00000+0  86377-3 0  9998
2 67454  42.9961 234.8575 0000693 257.8653 102.2121 15.27591225  8777
STARLINK-36516          
1 67455U 26008L   26063.51843795  .00047332  00000+0  17161-2 0  9998
2 67455  42.9989 234.2288 0000944 255.0891 104.9856 15.27625635  8784
